[{"OBJECT_NAME":"STARLINK-2303","OBJECT_ID":"2021-024E","EPOCH":"2026-03-09T20:52:04.087200","MEAN_MOTION":15.30130194,"ECCENTRICITY":0.0002126,"INCLINATION":53.1598,"RA_OF_ASC_NODE":331.617,"ARG_OF_PERICENTER":54.6031,"MEAN_ANOMALY":305.5168,"EPHEMERIS_TYPE":0,"CLASSIFICATION_TYPE":"U","NORAD_CAT_ID":47981,"ELEMENT_SET_NO":999,"REV_AT_EPOCH":27465,"BSTAR":-0.00089649618,"MEAN_MOTION_DOT":-0.00026761,"MEAN_MOTION_DDOT":0},{"OBJECT_NAME":"FENGYUN 1C DEB","OBJECT_ID":"1999-025DFQ","EPOCH":"2026-03-09T11:05:09.183840","MEAN_MOTION":15.08584918,"ECCENTRICITY":0.01333512,"INCLINATION":99.3393,"RA_OF_ASC_NODE":158.3034,"ARG_OF_PERICENTER":18.9579,"MEAN_ANOMALY":341.654,"EPHEMERIS_TYPE":0,"CLASSIFICATION_TYPE":"U","NORAD_CAT_ID":33679,"ELEMENT_SET_NO":999,"REV_AT_EPOCH":95428,"BSTAR":0.0014594523,"MEAN_MOTION_DOT":0.00028083,"MEAN_MOTION_DDOT":0}]
